{
  "name": "SATGUS",
  "line1": "1 62713U 25009DJ  25247.21448595  .00008166  00000+0  72833-3 0  9999",
  "line2": "2 62713  97.7299 326.5023 0002283  44.1798 315.9605 14.96232621 34724",
  "fetched_at": "2025-09-05T00:17:48.796122+00:00"
}